OBJECT_NAME,OBJECT_ID,EPOCH,MEAN_MOTION,ECCENTRICITY,INCLINATION,RA_OF_ASC_NODE,ARG_OF_PERICENTER,MEAN_ANOMALY,EPHEMERIS_TYPE,CLASSIFICATION_TYPE,NORAD_CAT_ID,ELEMENT_SET_NO,REV_AT_EPOCH,BSTAR,MEAN_MOTION_DOT,MEAN_MOTION_DDOT
STARLINK-32916,2025-027R,2026-06-15T01:15:47.548224,15.27653257,.00019685,43.0042,298.9352,271.2162,88.8465,0,U,62922,999,7643,.14345416E-2,.39514E-3,0
STARLINK-32905,2025-027S,2026-06-16T01:19:35.642496,15.27597609,.00030757,43.0081,293.5620,264.2018,95.8483,0,U,62923,999,7658,.88894287E-3,.24295E-3,0
STARLINK-32871,2025-027T,2026-06-16T00:57:23.867712,15.27588119,.00020147,42.9976,293.4375,275.7946,84.2676,0,U,62924,999,7658,.91762526E-3,.25082E-3,0
STARLINK-32920,2025-027U,2026-06-16T00:51:51.759936,15.27579647,.0000876,43.0110,293.4178,149.3212,210.7691,0,U,62925,999,7658,.5689602E-3,.15427E-3,0
STARLINK-32922,2025-027V,2026-06-16T01:14:03.479424,15.27581960,.00012182,43.0012,293.5293,278.4304,81.6409,0,U,62926,999,7658,.79378631E-3,.21647E-3,0
STARLINK-32891,2025-027W,2026-06-16T01:23:18.454272,15.27590889,.0001643,42.9997,293.5806,274.6621,85.4043,0,U,62927,999,7670,.53881648E-3,.14599E-3,0
KINEIS-2C,2025-028B,2026-06-16T03:59:19.005216,14.73352545,.00022503,98.1239,221.5590,267.7872,92.3078,0,U,62929,999,7246,.29045517E-3,.183E-4,0
KINEIS-2D,2025-028C,2026-06-16T02:28:15.863232,14.75683382,.00029939,97.9287,219.5700,180.1698,179.9511,0,U,62930,999,7255,.22198623E-3,.1467E-4,0
KINEIS-2E,2025-028D,2026-06-16T01:45:37.180800,14.77011566,.00017511,97.8955,218.7306,116.2214,243.9176,0,U,62931,999,7261,.19024317E-3,.1291E-4,0
KINEIS-2A,2025-028E,2026-06-16T03:27:39.948768,14.73379936,.0005204,98.1302,222.5213,155.5917,204.5538,0,U,62932,999,7245,.18846471E-3,.117E-4,0
KINEIS-2B,2025-028G,2026-06-16T01:17:14.182368,14.73382175,.00045058,97.9669,219.9364,139.5140,220.6404,0,U,62934,999,7249,.18817607E-3,.117E-4,0
STARLINK-32728,2025-029A,2026-06-16T04:01:26.839200,15.34415056,.00025188,53.1615,132.3006,88.8043,271.3248,0,U,62948,999,7647,.87574E-3,.29343E-3,0
STARLINK-32857,2025-029B,2026-06-16T04:16:28.123392,15.34391586,.00010692,53.1594,131.6610,76.1925,283.9197,0,U,62949,999,7648,.51371469E-3,.17015E-3,0
STARLINK-32850,2025-029C,2026-06-16T04:20:34.731456,15.31712595,.00011964,53.1586,134.5109,73.8831,286.2302,0,U,62950,999,7641,.55689667E-3,.16962E-3,0
STARLINK-32875,2025-029D,2026-06-16T04:13:26.043168,15.34396860,.00013011,53.1590,131.6437,88.2572,271.8579,0,U,62951,999,7645,.83171898E-3,.27826E-3,0
STARLINK-32865,2025-029E,2026-06-16T04:13:52.039200,15.31686367,.00015875,53.1608,134.4798,96.3995,263.7187,0,U,62952,999,7641,-.13814081E-4,-.794E-5,0
STARLINK-32884,2025-029F,2026-06-16T04:31:37.338240,15.34406779,.00013546,53.1588,131.7214,81.7841,278.3316,0,U,62953,999,7645,.56516018E-3,.18771E-3,0
STARLINK-32874,2025-029G,2026-06-16T04:19:29.566848,15.34400130,.00012721,53.1596,131.6683,86.8228,273.2920,0,U,62954,999,7645,.77144309E-3,.25778E-3,0
STARLINK-32880,2025-029H,2026-06-16T05:34:22.426464,15.31714838,.00011401,53.1596,134.1165,86.8398,273.2734,0,U,62955,999,7642,.50527547E-3,.15354E-3,0
STARLINK-32815,2025-029J,2026-06-16T04:58:53.037984,15.34398654,.00011637,53.1590,131.8388,85.3394,274.7742,0,U,62956,999,7645,.75357193E-3,.25169E-3,0
STARLINK-32879,2025-029K,2026-06-16T04:47:27.029760,15.31731772,.00013133,53.1584,134.6277,97.4489,262.6662,0,U,62957,999,7640,.66624592E-3,.20386E-3,0
STARLINK-32885,2025-029L,2026-06-16T04:40:42.230208,15.34408620,.00011584,53.1591,131.7525,68.3785,291.7341,0,U,62958,999,7644,.58156417E-3,.19329E-3,0
STARLINK-32896,2025-029M,2026-06-16T04:33:06.379488,15.30216610,.00009503,53.1596,135.2693,88.7878,271.3232,0,U,62959,999,7639,.84675033E-3,.24816E-3,0
STARLINK-32877,2025-029N,2026-06-16T04:23:59.298144,15.30203180,.00021753,53.1593,135.2275,136.8265,223.2906,0,U,62960,999,7637,.51857881E-3,.15032E-3,0
STARLINK-32889,2025-029P,2026-06-16T04:28:32.736864,15.30221076,.0001448,53.1603,135.2539,90.7798,269.3368,0,U,62961,999,7639,.87054148E-3,.25529E-3,0
STARLINK-32858,2025-029Q,2026-06-16T04:37:30.372960,15.30206911,.00010941,53.1584,134.5822,88.8613,271.2513,0,U,62962,999,7638,.66749271E-3,.19466E-3,0
STARLINK-32882,2025-029R,2026-06-16T04:22:31.470816,15.34394935,.00011353,53.1590,131.6791,88.2268,271.8864,0,U,62963,999,7644,.89868304E-3,.30104E-3,0
STARLINK-32887,2025-029S,2026-06-16T05:17:03.683328,15.34400792,.00009716,53.1605,131.9142,93.9173,266.1941,0,U,62964,999,7644,.68459367E-3,.22825E-3,0
STARLINK-32836,2025-029T,2026-06-16T04:04:28.584192,15.34401787,.0001702,53.1611,132.3090,90.0712,270.0486,0,U,62965,999,7643,.62450121E-3,.20783E-3,0
STARLINK-32888,2025-029U,2026-06-16T04:19:26.025312,15.30204100,.00013523,53.1600,135.2209,82.1843,277.9311,0,U,62966,999,7639,.40244835E-3,.1158E-3,0
