STARLINK-32916          
1 62922U 25027R   26166.05263366  .00039514  00000+0  14345-2 0  9999
2 62922  43.0042 298.9352 0001968 271.2162  88.8465 15.27653257 76431
STARLINK-32905          
1 62923U 25027S   26167.05527364  .00024295  00000+0  88894-3 0  9993
2 62923  43.0081 293.5620 0003075 264.2018  95.8483 15.27597609 76589
STARLINK-32871          
1 62924U 25027T   26167.03985958  .00025082  00000+0  91763-3 0  9993
2 62924  42.9976 293.4375 0002014 275.7946  84.2676 15.27588119 76588
STARLINK-32920          
1 62925U 25027U   26167.03601574  .00015427  00000+0  56896-3 0  9993
2 62925  43.0110 293.4178 0000876 149.3212 210.7691 15.27579647 76587
STARLINK-32922          
1 62926U 25027V   26167.05142916  .00021647  00000+0  79379-3 0  9998
2 62926  43.0012 293.5293 0001218 278.4304  81.6409 15.27581960 76588
STARLINK-32891          
1 62927U 25027W   26167.05785248  .00014599  00000+0  53882-3 0  9999
2 62927  42.9997 293.5806 0001643 274.6621  85.4043 15.27590889 76701
KINEIS-2C               
1 62929U 25028B   26167.16619219  .00001830  00000+0  29046-3 0  9997
2 62929  98.1239 221.5590 0002250 267.7872  92.3078 14.73352545 72461
KINEIS-2D               
1 62930U 25028C   26167.10296138  .00001467  00000+0  22199-3 0  9992
2 62930  97.9287 219.5700 0002993 180.1698 179.9511 14.75683382 72553
KINEIS-2E               
1 62931U 25028D   26167.07334700  .00001291  00000+0  19024-3 0  9995
2 62931  97.8955 218.7306 0001751 116.2214 243.9176 14.77011566 72610
KINEIS-2A               
1 62932U 25028E   26167.14421237  .00001170  00000+0  18846-3 0  9993
2 62932  98.1302 222.5213 0005204 155.5917 204.5538 14.73379936 72455
KINEIS-2B               
1 62934U 25028G   26167.05363637  .00001170  00000+0  18818-3 0  9993
2 62934  97.9669 219.9364 0004505 139.5140 220.6404 14.73382175 72494
STARLINK-32728          
1 62948U 25029A   26167.16767175  .00029343  00000+0  87574-3 0  9993
2 62948  53.1615 132.3006 0002518  88.8043 271.3248 15.34415056 76479
STARLINK-32857          
1 62949U 25029B   26167.17810328  .00017015  00000+0  51371-3 0  9993
2 62949  53.1594 131.6610 0001069  76.1925 283.9197 15.34391586 76482
STARLINK-32850          
1 62950U 25029C   26167.18095754  .00016962  00000+0  55690-3 0  9992
2 62950  53.1586 134.5109 0001196  73.8831 286.2302 15.31712595 76412
STARLINK-32875          
1 62951U 25029D   26167.17599587  .00027826  00000+0  83172-3 0  9992
2 62951  53.1590 131.6437 0001301  88.2572 271.8579 15.34396860 76456
STARLINK-32865          
1 62952U 25029E   26167.17629675 -.00000794  00000+0 -13814-4 0  9999
2 62952  53.1608 134.4798 0001587  96.3995 263.7187 15.31686367 76415
STARLINK-32884          
1 62953U 25029F   26167.18862660  .00018771  00000+0  56516-3 0  9991
2 62953  53.1588 131.7214 0001354  81.7841 278.3316 15.34406779 76456
STARLINK-32874          
1 62954U 25029G   26167.18020332  .00025778  00000+0  77144-3 0  9999
2 62954  53.1596 131.6683 0001272  86.8228 273.2920 15.34400130 76459
STARLINK-32880          
1 62955U 25029H   26167.23220401  .00015354  00000+0  50528-3 0  9991
2 62955  53.1596 134.1165 0001140  86.8398 273.2734 15.31714838 76425
STARLINK-32815          
1 62956U 25029J   26167.20755831  .00025169  00000+0  75357-3 0  9991
2 62956  53.1590 131.8388 0001163  85.3394 274.7742 15.34398654 76451
STARLINK-32879          
1 62957U 25029K   26167.19961840  .00020386  00000+0  66625-3 0  9993
2 62957  53.1584 134.6277 0001313  97.4489 262.6662 15.31731772 76400
STARLINK-32885          
1 62958U 25029L   26167.19493322  .00019329  00000+0  58156-3 0  9994
2 62958  53.1591 131.7525 0001158  68.3785 291.7341 15.34408620 76443
STARLINK-32896          
1 62959U 25029M   26167.18965717  .00024816  00000+0  84675-3 0  9998
2 62959  53.1596 135.2693 0000950  88.7878 271.3232 15.30216610 76391
STARLINK-32877          
1 62960U 25029N   26167.18332521  .00015032  00000+0  51858-3 0  9998
2 62960  53.1593 135.2275 0002175 136.8265 223.2906 15.30203180 76372
STARLINK-32889          
1 62961U 25029P   26167.18649001  .00025529  00000+0  87054-3 0  9992
2 62961  53.1603 135.2539 0001448  90.7798 269.3368 15.30221076 76398
STARLINK-32858          
1 62962U 25029Q   26167.19271265  .00019466  00000+0  66749-3 0  9998
2 62962  53.1584 134.5822 0001094  88.8613 271.2513 15.30206911 76389
STARLINK-32882          
1 62963U 25029R   26167.18230869  .00030104  00000+0  89868-3 0  9992
2 62963  53.1590 131.6791 0001135  88.2268 271.8864 15.34394935 76446
STARLINK-32887          
1 62964U 25029S   26167.22018152  .00022825  00000+0  68459-3 0  9991
2 62964  53.1605 131.9142 0000971  93.9173 266.1941 15.34400792 76444
STARLINK-32836          
1 62965U 25029T   26167.16977528  .00020783  00000+0  62450-3 0  9992
2 62965  53.1611 132.3090 0001702  90.0712 270.0486 15.34401787 76431
STARLINK-32888          
1 62966U 25029U   26167.18016233  .00011580  00000+0  40245-3 0  9995
2 62966  53.1600 135.2209 0001352  82.1843 277.9311 15.30204100 76396
